{"type": "FeatureCollection", "features": [ {"type": "Feature", "properties": {"norad_id": 30345, "name": "FENGYUN 1C DEB", "group": "fengyun-1c-debris", "lat": -80.91239314093997, "lon": 161.87188217111068, "alt_km": 754.3938792291247, "timestamp": "2025-12-26T22:28:06.060029+00:00", "meta": {"OBJECT_NAME": "FENGYUN 1C DEB", "OBJECT_ID": "1999-025ABG", "EPOCH": "2025-12-26T14:33:58.516992", "MEAN_MOTION": 14.41834589, "ECCENTRICITY": 0.00181881, "INCLINATION": 98.9195, "RA_OF_ASC_NODE": 60.5905, "ARG_OF_PERICENTER": 203.5465, "MEAN_ANOMALY": 156.4892, "EPHEMERIS_TYPE": 0, "CLASSIFICATION_TYPE": "U", "NORAD_CAT_ID": 30345, "ELEMENT_SET_NO": 999, "REV_AT_EPOCH": 97973, "BSTAR": 0.0020976126, "MEAN_MOTION_DOT": 6.83e-05, "MEAN_MOTION_DDOT": 0}, "tle": {"line1": "1 30345U 99025ABG 25360.60692728  .00006830  00000+0  20976-2 0  9998", "line2": "2 30345  98.9195  60.5905 0018188 203.5465 156.4892 14.41834589979731"}}, "geometry": {"type": "Point", "coordinates": [161.87188217111068, -80.91239314093997]}}, {"type": "Feature", "properties": {"norad_id": 30346, "name": "FENGYUN 1C DEB", "group": "fengyun-1c-debris", "lat": -56.74505249044233, "lon": 111.57726614861629, "alt_km": 754.5246795584908, "timestamp": "2025-12-26T22:28:06.060039+00:00", "meta": {"OBJECT_NAME": "FENGYUN 1C DEB", "OBJECT_ID": "1999-025ABH", "EPOCH": "2025-12-25T05:08:23.271072", "MEAN_MOTION": 14.34015409, "ECCENTRICITY": 0.0055061, "INCLINATION": 98.8077, "RA_OF_ASC_NODE": 96.1475, "ARG_OF_PERICENTER": 346.13, "MEAN_ANOMALY": 71.6635, "EPHEMERIS_TYPE": 0, "CLASSIFICATION_TYPE": "U", "NORAD_CAT_ID": 30346, "ELEMENT_SET_NO": 999, "REV_AT_EPOCH": 97592, "BSTAR": 0.0019443, "MEAN_MOTION_DOT": 5.48e-05, "MEAN_MOTION_DDOT": 0}, "tle": {"line1": "1 30346U 99025ABH 25359.21415823  .00005480  00000+0  19443-2 0  9990", "line2": "2 30346  98.8077  96.1475 0055061 346.1300  71.6635 14.34015409975924"}}, "geometry": {"type": "Point", "coordinates": [111.57726614861629, -56.74505249044233]}}, {"type": "Feature", "properties": {"norad_id": 30347, "name": "FENGYUN 1C DEB", "group": "fengyun-1c-debris", "lat": 31.518546106450387, "lon": 178.2897491137715, "alt_km": 829.8070062104507, "timestamp": "2025-12-26T22:28:06.060049+00:00", "meta": {"OBJECT_NAME": "FENGYUN 1C DEB", "OBJECT_ID": "1999-025ABJ", "EPOCH": "2025-12-25T11:57:32.815872", "MEAN_MOTION": 13.927744, "ECCENTRICITY": 0.0150024, "INCLINATION": 98.3767, "RA_OF_ASC_NODE": 182.1722, "ARG_OF_PERICENTER": 358.3134, "MEAN_ANOMALY": 27.0984, "EPHEMERIS_TYPE": 0, "CLASSIFICATION_TYPE": "U", "NORAD_CAT_ID": 30347, "ELEMENT_SET_NO": 999, "REV_AT_EPOCH": 96138, "BSTAR": 0.00015107, "MEAN_MOTION_DOT": 1.76e-06, "MEAN_MOTION_DDOT": 0}, "tle": {"line1": "1 30347U 99025ABJ 25359.49829648  .00000176  00000+0  15107-3 0  9996", "line2": "2 30347  98.3767 182.1722 0150024 358.3134  27.0984 13.92774400961385"}}, "geometry": {"type": "Point", "coordinates": [178.2897491137715, 31.518546106450387]}}, {"type": "Feature", "properties": {"norad_id": 30348, "name": "FENGYUN 1C DEB", "group": "fengyun-1c-debris", "lat": -61.364509175523686, "lon": 112.674469999675, "alt_km": 770.937111084675, "timestamp": "2025-12-26T22:28:06.060060+00:00", "meta": {"OBJECT_NAME": "FENGYUN 1C DEB", "OBJECT_ID": "1999-025ABK", "EPOCH": "2025-12-26T06:18:28.824768", "MEAN_MOTION": 14.35238963, "ECCENTRICITY": 0.00173251, "INCLINATION": 98.8628, "RA_OF_ASC_NODE": 95.379, "ARG_OF_PERICENTER": 332.0286, "MEAN_ANOMALY": 88.3539, "EPHEMERIS_TYPE": 0, "CLASSIFICATION_TYPE": "U", "NORAD_CAT_ID": 30348, "ELEMENT_SET_NO": 999, "REV_AT_EPOCH": 97728, "BSTAR": 0.0019395778, "MEAN_MOTION_DOT": 5.517e-05, "MEAN_MOTION_DDOT": 0}, "tle": {"line1": "1 30348U 99025ABK 25360.26283362  .00005517  00000+0  19396-2 0  9998", "line2": "2 30348  98.8628  95.3790 0017325 332.0286  88.3539 14.35238963977289"}}, "geometry": {"type": "Point", "coordinates": [112.674469999675, -61.364509175523686]}}, {"type": "Feature", "properties": {"norad_id": 30349, "name": "FENGYUN 1C DEB", "group": "fengyun-1c-debris", "lat": 50.114485848822696, "lon": 153.17541122873396, "alt_km": 909.4769547334408, "timestamp": "2025-12-26T22:28:06.060070+00:00", "meta": {"OBJECT_NAME": "FENGYUN 1C DEB", "OBJECT_ID": "1999-025ABL", "EPOCH": "2025-12-26T10:30:39.851136", "MEAN_MOTION": 14.1120867, "ECCENTRICITY": 0.00887642, "INCLINATION": 98.586, "RA_OF_ASC_NODE": 322.2835, "ARG_OF_PERICENTER": 333.7821, "MEAN_ANOMALY": 145.1293, "EPHEMERIS_TYPE": 0, "CLASSIFICATION_TYPE": "U", "NORAD_CAT_ID": 30349, "ELEMENT_SET_NO": 999, "REV_AT_EPOCH": 96424, "BSTAR": 0.0022509129, "MEAN_MOTION_DOT": 4.172e-05, "MEAN_MOTION_DDOT": 0}, "tle": {"line1": "1 30349U 99025ABL 25360.43796124  .00004172  00000+0  22509-2 0  9999", "line2": "2 30349  98.5860 322.2835 0088764 333.7821 145.1293 14.11208670964242"}}, "geometry": {"type": "Point", "coordinates": [153.17541122873396, 50.114485848822696]}}, {"type": "Feature", "properties": {"norad_id": 30350, "name": "FENGYUN 1C DEB", "group": "fengyun-1c-debris", "lat": 60.121157166583494, "lon": 163.0001713074848, "alt_km": 1088.749624672303, "timestamp": "2025-12-26T22:28:06.060081+00:00", "meta": {"OBJECT_NAME": "FENGYUN 1C DEB", "OBJECT_ID": "1999-025ABM", "EPOCH": "2025-12-26T12:04:05.172096", "MEAN_MOTION": 13.82840733, "ECCENTRICITY": 0.02193115, "INCLINATION": 98.0925, "RA_OF_ASC_NODE": 176.9648, "ARG_OF_PERICENTER": 270.6938, "MEAN_ANOMALY": 153.2004, "EPHEMERIS_TYPE": 0, "CLASSIFICATION_TYPE": "U", "NORAD_CAT_ID": 30350, "ELEMENT_SET_NO": 999, "REV_AT_EPOCH": 95172, "BSTAR": 0.00083955263, "MEAN_MOTION_DOT": 1.063e-05, "MEAN_MOTION_DDOT": 0}, "tle": {"line1": "1 30350U 99025ABM 25360.50283764  .00001063  00000+0  83955-3 0  9999", "line2": "2 30350  98.0925 176.9648 0219311 270.6938 153.2004 13.82840733951727"}}, "geometry": {"type": "Point", "coordinates": [163.0001713074848, 60.121157166583494]}}, {"type": "Feature", "properties": {"norad_id": 30352, "name": "FENGYUN 1C DEB", "group": "fengyun-1c-debris", "lat": 23.186922025781676, "lon": -154.6211212687662, "alt_km": 877.5181820117787, "timestamp": "2025-12-26T22:28:06.060091+00:00", "meta": {"OBJECT_NAME": "FENGYUN 1C DEB", "OBJECT_ID": "1999-025ABP", "EPOCH": "2025-12-26T01:22:28.999776", "MEAN_MOTION": 14.07594157, "ECCENTRICITY": 0.00275593, "INCLINATION": 98.7636, "RA_OF_ASC_NODE": 20.7379, "ARG_OF_PERICENTER": 280.4922, "MEAN_ANOMALY": 104.9819, "EPHEMERIS_TYPE": 0, "CLASSIFICATION_TYPE": "U", "NORAD_CAT_ID": 30352, "ELEMENT_SET_NO": 999, "REV_AT_EPOCH": 97098, "BSTAR": 0.0002415181, "MEAN_MOTION_DOT": 3.66e-06, "MEAN_MOTION_DDOT": 0}, "tle": {"line1": "1 30352U 99025ABP 25360.05728009  .00000366  00000+0  24152-3 0  9996", "line2": "2 30352  98.7636  20.7379 0027559 280.4922 104.9819 14.07594157970985"}}, "geometry": {"type": "Point", "coordinates": [-154.6211212687662, 23.186922025781676]}}, {"type": "Feature", "properties": {"norad_id": 30355, "name": "FENGYUN 1C DEB", "group": "fengyun-1c-debris", "lat": 1.868312975397755, "lon": 4.560708644797576, "alt_km": 834.3657575697953, "timestamp": "2025-12-26T22:28:06.060103+00:00", "meta": {"OBJECT_NAME": "FENGYUN 1C DEB", "OBJECT_ID": "1999-025ABS", "EPOCH": "2025-12-26T11:20:59.933760", "MEAN_MOTION": 14.18855329, "ECCENTRICITY": 0.00529671, "INCLINATION": 98.589, "RA_OF_ASC_NODE": 4.3944, "ARG_OF_PERICENTER": 269.3253, "MEAN_ANOMALY": 247.108, "EPHEMERIS_TYPE": 0, "CLASSIFICATION_TYPE": "U", "NORAD_CAT_ID": 30355, "ELEMENT_SET_NO": 999, "REV_AT_EPOCH": 97545, "BSTAR": 0.00060487109, "MEAN_MOTION_DOT": 1.234e-05, "MEAN_MOTION_DDOT": 0}, "tle": {"line1": "1 30355U 99025ABS 25360.47291590  .00001234  00000+0  60487-3 0  9991", "line2": "2 30355  98.5890   4.3944 0052967 269.3253 247.1080 14.18855329975458"}}, "geometry": {"type": "Point", "coordinates": [4.560708644797576, 1.868312975397755]}}, {"type": "Feature", "properties": {"norad_id": 30356, "name": "FENGYUN 1C DEB", "group": "fengyun-1c-debris", "lat": -45.82488264440528, "lon": 166.70092849209536, "alt_km": 820.6396403067738, "timestamp": "2025-12-26T22:28:06.060113+00:00", "meta": {"OBJECT_NAME": "FENGYUN 1C DEB", "OBJECT_ID": "1999-025ABT", "EPOCH": "2025-12-26T11:49:32.861280", "MEAN_MOTION": 14.13069054, "ECCENTRICITY": 0.0051964, "INCLINATION": 98.6822, "RA_OF_ASC_NODE": 355.319, "ARG_OF_PERICENTER": 249.2744, "MEAN_ANOMALY": 242.8338, "EPHEMERIS_TYPE": 0, "CLASSIFICATION_TYPE": "U", "NORAD_CAT_ID": 30356, "ELEMENT_SET_NO": 999, "REV_AT_EPOCH": 97215, "BSTAR": 0.0006461984, "MEAN_MOTION_DOT": 1.179e-05, "MEAN_MOTION_DDOT": 0}, "tle": {"line1": "1 30356U 99025ABT 25360.49274145  .00001179  00000+0  64620-3 0  9992", "line2": "2 30356  98.6822 355.3190 0051964 249.2744 242.8338 14.13069054972154"}}, "geometry": {"type": "Point", "coordinates": [166.70092849209536, -45.82488264440528]}}, {"type": "Feature", "properties": {"norad_id": 30357, "name": "FENGYUN 1C DEB", "group": "fengyun-1c-debris", "lat": 16.005316359275252, "lon": 25.225194029880107, "alt_km": 873.992329176599, "timestamp": "2025-12-26T22:28:06.060123+00:00", "meta": {"OBJECT_NAME": "FENGYUN 1C DEB", "OBJECT_ID": "1999-025ABU", "EPOCH": "2025-12-26T12:52:56.521056", "MEAN_MOTION": 14.05269508, "ECCENTRICITY": 0.00485179, "INCLINATION": 98.805, "RA_OF_ASC_NODE": 27.3856, "ARG_OF_PERICENTER": 290.7509, "MEAN_ANOMALY": 225.4909, "EPHEMERIS_TYPE": 0, "CLASSIFICATION_TYPE": "U", "NORAD_CAT_ID": 30357, "ELEMENT_SET_NO": 999, "REV_AT_EPOCH": 97000, "BSTAR": 0.00027064023, "MEAN_MOTION_DOT": 3.99e-06, "MEAN_MOTION_DDOT": 0}, "tle": {"line1": "1 30357U 99025ABU 25360.53676529  .00000399  00000+0  27064-3 0  9994", "line2": "2 30357  98.8050  27.3856 0048517 290.7509 225.4909 14.05269508970005"}}, "geometry": {"type": "Point", "coordinates": [25.225194029880107, 16.005316359275252]}}]}